NORAD_CAT_ID,OBJECT_NAME,OBJECT_TYPE,EPOCH,MEAN_MOTION,ECCENTRICITY,INCLINATION,RA_OF_ASC_NODE,ARG_OF_PERICENTER,MEAN_ANOMALY,BSTAR,MEAN_MOTION_DOT,MEAN_MOTION_DDOT,TLE_LINE0,TLE_LINE1,TLE_LINE2,SEMIMAJOR_AXIS,PERIOD,APOGEE,PERIGEE,DECAYED
53538.0,STARLINK-4118,PAYLOAD,2023-06-21 18:16:59,15.08838343,0.0001171,53.2149,197.0586,83.805,276.3075,1.5828e-05,-3.6e-07,0.0,0 STARLINK-4118,1 53538U 22101M   23172.76179413 -.00000036  00000-0  15828-4 0  9991,2 53538  53.2149 197.0586 0001171  83.8050 276.3075 15.08838343 47240,6917.885,95.438,540.561,538.94,0.0
53538.0,STARLINK-4118,PAYLOAD,2023-06-22 10:10:50,15.08838407,0.0001089,53.2146,194.0844,83.0485,277.0631,2.8132e-05,1.6e-06,0.0,0 STARLINK-4118,1 53538U 22101M   23173.42419424  .00000160  00000-0  28132-4 0  9993,2 53538  53.2146 194.0844 0001089  83.0485 277.0631 15.08838407 46654,6917.885,95.438,540.504,538.997,0.0
53538.0,STARLINK-4118,PAYLOAD,2023-06-23 17:58:33,15.0883781,0.0001058,53.2144,188.1364,86.4602,273.6511,3.9055e-05,3.34e-06,0.0,0 STARLINK-4118,1 53538U 22101M   23174.74899592  .00000334  00000-0  39055-4 0  9996,2 53538  53.2144 188.1364 0001058  86.4602 273.6511 15.08837810 46855,6917.887,95.438,540.484,539.02,0.0
53538.0,STARLINK-4118,PAYLOAD,2023-06-25 00:10:52,15.08840049,0.0001112,53.2149,182.4862,87.1432,272.9688,4.9385e-05,4.98e-06,0.0,0 STARLINK-4118,1 53538U 22101M   23176.00755569  .00000498  00000-0  49385-4 0  9990,2 53538  53.2149 182.4862 0001112  87.1432 272.9688 15.08840049 47047,6917.88,95.438,540.515,538.976,0.0
53538.0,STARLINK-4118,PAYLOAD,2023-06-26 09:34:00,15.08821059,0.0001511,53.2152,176.244,66.5751,293.54,-6.9899e-05,-1.4e-05,0.0,0 STARLINK-4118,1 53538U 22101M   23177.39861171 -.00001400  00000-0 -69899-4 0  9998,2 53538  53.2152 176.2440 0001511  66.5751 293.5400 15.08821059 47256,6917.938,95.439,540.849,538.758,0.0
53538.0,STARLINK-4118,PAYLOAD,2023-06-27 03:03:13,15.08838133,0.0001127,53.2144,172.9697,90.7958,269.3163,1.6592e-05,-2.4e-07,0.0,0 STARLINK-4118,1 53538U 22101M   23178.12723712 -.00000024  00000-0  16592-4 0  9990,2 53538  53.2144 172.9697 0001127  90.7958 269.3163 15.08838133 47365,6917.886,95.438,540.531,538.971,0.0
53538.0,STARLINK-4118,PAYLOAD,2023-06-28 06:04:46,15.08838538,0.0001184,53.2149,167.9145,90.8309,269.2819,1.6002e-05,-3.3e-07,0.0,0 STARLINK-4118,1 53538U 22101M   23179.25331738 -.00000033  00000-0  16002-4 0  9994,2 53538  53.2149 167.9145 0001184  90.8309 269.2819 15.08838538 47531,6917.885,95.438,540.569,538.931,0.0
53538.0,STARLINK-4118,PAYLOAD,2023-07-01 00:50:59,15.08833526,0.0001129,53.2153,155.4255,91.6323,268.4798,-2.8111e-05,-7.35e-06,0.0,0 STARLINK-4118,1 53538U 22101M   23182.03540783 -.00000735  00000-0 -28111-4 0  9990,2 53538  53.2153 155.4255 0001129  91.6323 268.4798 15.08833526 47959,6917.9,95.438,540.546,538.984,0.0
53538.0,STARLINK-4118,PAYLOAD,2023-07-02 02:17:09,15.08836878,0.0001195,53.2161,150.6679,93.8313,266.2816,1.5242e-05,-4.5e-07,0.0,0 STARLINK-4118,1 53538U 22101M   23183.09524715 -.00000045  00000-0  15242-4 0  9998,2 53538  53.2161 150.6679 0001195  93.8313 266.2816 15.08836878 48110,6917.89,95.438,540.582,538.928,0.0
53538.0,STARLINK-4118,PAYLOAD,2023-07-03 06:54:05,15.08844414,0.0001176,53.2161,145.3154,93.2822,266.8304,0.00010946,1.455e-05,0.0,0 STARLINK-4118,1 53538U 22101M   23184.28756054  .00001455  00000-0  10946-3 0  9993,2 53538  53.2161 145.3154 0001176  93.2822 266.8304 15.08844414 48299,6917.867,95.437,540.545,538.918,0.0
53538.0,STARLINK-4118,PAYLOAD,2023-07-03 14:51:01,15.08836439,0.000117,53.216,143.8284,93.3863,266.7263,2.513e-05,1.12e-06,0.0,0 STARLINK-4118,1 53538U 22101M   23184.61876826  .00000112  00000-0  25130-4 0  9991,2 53538  53.2160 143.8284 0001170  93.3863 266.7263 15.08836439 48342,6917.891,95.438,540.566,538.947,0.0
53538.0,STARLINK-4118,PAYLOAD,2023-07-05 00:14:06,15.08844721,0.0001191,53.2157,137.5829,95.3423,264.7705,3.0226e-05,1.93e-06,0.0,0 STARLINK-4118,1 53538U 22101M   23186.00980301  .00000193  00000-0  30226-4 0  9991,2 53538  53.2157 137.5829 0001191  95.3423 264.7705 15.08844721 48555,6917.866,95.437,540.555,538.907,0.0
53538.0,STARLINK-4118,PAYLOAD,2023-07-06 03:15:41,15.08833076,0.0001262,53.2165,132.5282,91.8606,268.2531,1.193e-06,-2.69e-06,0.0,0 STARLINK-4118,1 53538U 22101M   23187.13589151 -.00000269  00000-0  11930-5 0  9991,2 53538  53.2165 132.5282 0001262  91.8606 268.2531 15.08833076 48721,6917.902,95.438,540.64,538.894,0.0
53538.0,STARLINK-4118,PAYLOAD,2023-07-06 06:26:26,15.08839453,0.0001103,53.2161,131.9334,91.9673,268.1445,3.8412e-05,3.24e-06,0.0,0 STARLINK-4118,1 53538U 22101M   23187.26836676  .00000324  00000-0  38412-4 0  9996,2 53538  53.2161 131.9334 0001103  91.9673 268.1445 15.08839453 48747,6917.882,95.438,540.51,538.984,0.0
53538.0,STARLINK-4118,PAYLOAD,2023-07-07 06:17:13,15.08848966,0.0001102,53.2163,127.4731,91.0626,269.0492,4.768e-05,4.71e-06,0.0,0 STARLINK-4118,1 53538U 22101M   23188.26196112  .00000471  00000-0  47680-4 0  9991,2 53538  53.2163 127.4731 0001102  91.0626 269.0492 15.08848966 48895,6917.853,95.437,540.48,538.956,0.0
53538.0,STARLINK-4118,PAYLOAD,2023-07-07 12:38:46,15.08842307,0.0001066,53.2159,126.2831,88.9857,271.1257,-1.1492e-05,-4.71e-06,0.0,0 STARLINK-4118,1 53538U 22101M   23188.52692654 -.00000471  00000-0 -11492-4 0  9996,2 53538  53.2159 126.2831 0001066  88.9857 271.1257 15.08842307 48939,6917.873,95.437,540.476,539.001,0.0
53538.0,STARLINK-4118,PAYLOAD,2023-07-08 02:57:15,15.08830816,0.0001072,53.2165,123.6073,91.034,269.0774,-3.4173e-05,-8.31e-06,0.0,0 STARLINK-4118,1 53538U 22101M   23189.12309776 -.00000831  00000-0 -34173-4 0  9994,2 53538  53.2165 123.6073 0001072  91.0340 269.0774 15.08830816 49027,6917.908,95.438,540.515,539.032,0.0
53538.0,STARLINK-4118,PAYLOAD,2023-07-09 04:23:25,15.08837752,0.0001169,53.216,118.8498,88.2022,271.9104,-1.3981e-05,-5.1e-06,0.0,0 STARLINK-4118,1 53538U 22101M   23190.18293707 -.00000510  00000-0 -13981-4 0  9996,2 53538  53.2160 118.8498 0001169  88.2022 271.9104 15.08837752 49183,6917.887,95.438,540.561,538.944,0.0
53538.0,STARLINK-4118,PAYLOAD,2023-07-10 12:11:08,15.08838889,0.0001107,53.2169,112.901,94.6258,265.486,3.5493e-05,2.77e-06,0.0,0 STARLINK-4118,1 53538U 22101M   23191.50773662  .00000277  00000-0  35493-4 0  9996,2 53538  53.2169 112.9010 0001107  94.6258 265.4860 15.08838889 49382,6917.884,95.438,540.515,538.983,0.0
53538.0,STARLINK-4118,PAYLOAD,2023-07-11 00:54:13,15.08824335,0.0001139,53.2163,110.5216,93.0818,267.0305,0.00031152,4.671e-05,0.0,0 STARLINK-4118,1 53538U 22101M   23192.03766048  .00004671  00000-0  31152-3 0  9994,2 53538  53.2163 110.5216 0001139  93.0818 267.0305 15.08824335 49460,6917.928,95.439,540.581,539.005,0.0
53538.0,STARLINK-4118,PAYLOAD,2023-07-11 04:04:59,15.08843829,0.0001199,53.2166,109.9268,93.0093,267.1036,9.1643e-05,1.171e-05,0.0,0 STARLINK-4118,1 53538U 22101M   23192.17013281  .00001171  00000-0  91643-4 0  9997,2 53538  53.2166 109.9268 0001199  93.0093 267.1036 15.08843829 49486,6917.869,95.437,540.563,538.904,0.0
53538.0,STARLINK-4118,PAYLOAD,2023-07-13 18:05:02,15.08835971,0.0001279,53.2158,98.3305,88.5154,271.5984,-3.513e-05,-8.47e-06,0.0,0 STARLINK-4118,1 53538U 22101M   23194.75350180 -.00000847  00000-0 -35130-4 0  9995,2 53538  53.2158  98.3305 0001279  88.5154 271.5984 15.08835971 49879,6917.893,95.438,540.643,538.873,0.0
53538.0,STARLINK-4118,PAYLOAD,2023-07-15 00:17:21,15.08845227,0.0001237,53.2165,92.6825,84.9733,275.14,9.7226e-05,1.26e-05,0.0,0 STARLINK-4118,1 53538U 22101M   23196.01205387  .00001260  00000-0  97226-4 0  9996,2 53538  53.2165  92.6825 0001237  84.9733 275.1400 15.08845227 50069,6917.864,95.437,540.585,538.874,0.0
53538.0,STARLINK-4118,PAYLOAD,2023-07-16 03:18:55,15.08836042,0.0001193,53.2167,87.6265,88.1108,272.0021,5.3715e-05,5.67e-06,0.0,0 STARLINK-4118,1 53538U 22101M   23197.13814403  .00000567  00000-0  53715-4 0  9999,2 53538  53.2167  87.6265 0001193  88.1108 272.0021 15.08836042 50235,6917.892,95.438,540.583,538.932,0.0
53538.0,STARLINK-4118,PAYLOAD,2023-07-17 09:31:14,15.08848032,0.0001085,53.2165,81.9761,83.4854,276.6261,-2.7088e-06,-3.31e-06,0.0,0 STARLINK-4118,1 53538U 22101M   23198.39669846 -.00000331  00000-0 -27088-5 0  9993,2 53538  53.2165  81.9761 0001085  83.4854 276.6261 15.08848032 50426,6917.856,95.437,540.471,538.97,0.0
53538.0,STARLINK-4118,PAYLOAD,2023-07-19 01:15:53,15.08841516,0.0001207,53.2166,74.5434,85.3919,274.7211,6.4972e-06,-1.84e-06,0.0,0 STARLINK-4118,1 53538U 22101M   23200.05270302 -.00000184  00000-0  64972-5 0  9993,2 53538  53.2166  74.5434 0001207  85.3919 274.7211 15.08841516 50672,6917.876,95.437,540.576,538.906,0.0
53538.0,STARLINK-4118,PAYLOAD,2023-07-20 15:25:09,15.08831463,0.000122,53.218,67.403,116.7401,243.3717,0.00013098,1.797e-05,0.0,0 STARLINK-4118,1 53538U 22101M   23201.64246742  .00001797  00000-0  13098-3 0  9991,2 53538  53.2180  67.4030 0001220 116.7401 243.3717 15.08831463 50911,6917.906,95.438,540.615,538.927,0.0
53538.0,STARLINK-4118,PAYLOAD,2023-07-21 00:57:27,15.08839582,0.0001176,53.2171,65.6204,97.3417,262.7709,0.00018622,2.677e-05,0.0,0 STARLINK-4118,1 53538U 22101M   23202.03990367  .00002677  00000-0  18622-3 0  9990,2 53538  53.2171  65.6204 0001176  97.3417 262.7709 15.08839582 50977,6917.882,95.438,540.56,538.933,0.0
53538.0,STARLINK-4118,PAYLOAD,2023-07-24 00:29:49,15.08844554,0.0001471,53.2173,52.2389,123.6131,236.5002,-3.5503e-05,-8.53e-06,0.0,0 STARLINK-4118,1 53538U 22101M   23205.02071119 -.00000853  00000-0 -35503-4 0  9991,2 53538  53.2173  52.2389 0001471 123.6131 236.5002 15.08844554 52117,6917.866,95.437,540.749,538.714,0.0
53538.0,STARLINK-4118,PAYLOAD,2023-07-25 13:03:42,15.08831748,0.0001192,53.2171,45.3995,88.7333,271.3795,9.8584e-05,1.281e-05,0.0,0 STARLINK-4118,1 53538U 22101M   23206.54423981  .00001281  00000-0  98584-4 0  9999,2 53538  53.2171  45.3995 0001192  88.7333 271.3795 15.08831748 52348,6917.906,95.438,540.595,538.946,0.0
